{"type": "FeatureCollection", "features": [ {"type": "Feature", "properties": {"norad_id": 29940, "name": "FENGYUN 1C DEB", "group": "fengyun-1c-debris", "lat": -13.865618317568078, "lon": 168.4830468999579, "alt_km": 821.6313513814275, "timestamp": "2025-12-06T18:50:10.440981+00:00", "meta": {"OBJECT_NAME": "FENGYUN 1C DEB", "OBJECT_ID": "1999-025JN", "EPOCH": "2025-12-05T19:04:08.585184", "MEAN_MOTION": 14.18795289, "ECCENTRICITY": 0.00746316, "INCLINATION": 98.6212, "RA_OF_ASC_NODE": 349.6663, "ARG_OF_PERICENTER": 119.5828, "MEAN_ANOMALY": 58.227, "EPHEMERIS_TYPE": 0, "CLASSIFICATION_TYPE": "U", "NORAD_CAT_ID": 29940, "ELEMENT_SET_NO": 999, "REV_AT_EPOCH": 97389, "BSTAR": 0.0009902786, "MEAN_MOTION_DOT": 2.075e-05, "MEAN_MOTION_DDOT": 0}, "tle": {"line1": "1 29940U 99025JN  25339.79454381  .00002075  00000+0  99028-3 0  9996", "line2": "2 29940  98.6212 349.6663 0074631 119.5828  58.2270 14.18795289973890"}}, "geometry": {"type": "Point", "coordinates": [168.4830468999579, -13.865618317568078]}}, {"type": "Feature", "properties": {"norad_id": 29942, "name": "FENGYUN 1C DEB", "group": "fengyun-1c-debris", "lat": 14.035301578386385, "lon": -131.1564647720461, "alt_km": 812.9095194604643, "timestamp": "2025-12-06T18:50:10.440991+00:00", "meta": {"OBJECT_NAME": "FENGYUN 1C DEB", "OBJECT_ID": "1999-025JQ", "EPOCH": "2025-12-06T02:57:00.703584", "MEAN_MOTION": 14.30375661, "ECCENTRICITY": 0.00487379, "INCLINATION": 98.6378, "RA_OF_ASC_NODE": 46.0087, "ARG_OF_PERICENTER": 295.8495, "MEAN_ANOMALY": 63.7666, "EPHEMERIS_TYPE": 0, "CLASSIFICATION_TYPE": "U", "NORAD_CAT_ID": 29942, "ELEMENT_SET_NO": 999, "REV_AT_EPOCH": 97774, "BSTAR": 0.0012809685, "MEAN_MOTION_DOT": 3.329e-05, "MEAN_MOTION_DDOT": 0}, "tle": {"line1": "1 29942U 99025JQ  25340.12292481  .00003329  00000+0  12810-2 0  9994", "line2": "2 29942  98.6378  46.0087 0048737 295.8495  63.7666 14.30375661977749"}}, "geometry": {"type": "Point", "coordinates": [-131.1564647720461, 14.035301578386385]}}, {"type": "Feature", "properties": {"norad_id": 29943, "name": "FENGYUN 1C DEB", "group": "fengyun-1c-debris", "lat": -18.708817018349972, "lon": 165.74228071497458, "alt_km": 847.8714916415256, "timestamp": "2025-12-06T18:50:10.441001+00:00", "meta": {"OBJECT_NAME": "FENGYUN 1C DEB", "OBJECT_ID": "1999-025JR", "EPOCH": "2025-12-06T01:10:53.344992", "MEAN_MOTION": 14.09669067, "ECCENTRICITY": 0.00346642, "INCLINATION": 98.7269, "RA_OF_ASC_NODE": 348.0109, "ARG_OF_PERICENTER": 246.4532, "MEAN_ANOMALY": 181.6305, "EPHEMERIS_TYPE": 0, "CLASSIFICATION_TYPE": "U", "NORAD_CAT_ID": 29943, "ELEMENT_SET_NO": 999, "REV_AT_EPOCH": 97212, "BSTAR": 0.00012720435, "MEAN_MOTION_DOT": 1.81e-06, "MEAN_MOTION_DDOT": 0}, "tle": {"line1": "1 29943U 99025JR  25340.04922853  .00000181  00000+0  12720-3 0  9993", "line2": "2 29943  98.7269 348.0109 0034664 246.4532 181.6305 14.09669067972127"}}, "geometry": {"type": "Point", "coordinates": [165.74228071497458, -18.708817018349972]}}, {"type": "Feature", "properties": {"norad_id": 29944, "name": "FENGYUN 1C DEB", "group": "fengyun-1c-debris", "lat": 37.821612811532454, "lon": 101.13633387509242, "alt_km": 640.8305181519418, "timestamp": "2025-12-06T18:50:10.441012+00:00", "meta": {"OBJECT_NAME": "FENGYUN 1C DEB", "OBJECT_ID": "1999-025JS", "EPOCH": "2025-12-06T02:02:23.621568", "MEAN_MOTION": 14.87331194, "ECCENTRICITY": 0.01667992, "INCLINATION": 99.0025, "RA_OF_ASC_NODE": 273.2738, "ARG_OF_PERICENTER": 253.3809, "MEAN_ANOMALY": 104.9032, "EPHEMERIS_TYPE": 0, "CLASSIFICATION_TYPE": "U", "NORAD_CAT_ID": 29944, "ELEMENT_SET_NO": 999, "REV_AT_EPOCH": 355, "BSTAR": 0.0012279801, "MEAN_MOTION_DOT": 0.00014271, "MEAN_MOTION_DDOT": 0}, "tle": {"line1": "1 29944U 99025JS  25340.08499562  .00014271  00000+0  12280-2 0  9999", "line2": "2 29944  99.0025 273.2738 0166799 253.3809 104.9032 14.87331194  3558"}}, "geometry": {"type": "Point", "coordinates": [101.13633387509242, 37.821612811532454]}}, {"type": "Feature", "properties": {"norad_id": 29945, "name": "FENGYUN 1C DEB", "group": "fengyun-1c-debris", "lat": 45.00612702804263, "lon": -166.48893420163768, "alt_km": 880.209538689528, "timestamp": "2025-12-06T18:50:10.441022+00:00", "meta": {"OBJECT_NAME": "FENGYUN 1C DEB", "OBJECT_ID": "1999-025JT", "EPOCH": "2025-12-06T08:00:12.894048", "MEAN_MOTION": 14.05570096, "ECCENTRICITY": 0.00312565, "INCLINATION": 98.7926, "RA_OF_ASC_NODE": 4.1677, "ARG_OF_PERICENTER": 20.4145, "MEAN_ANOMALY": 350.8511, "EPHEMERIS_TYPE": 0, "CLASSIFICATION_TYPE": "U", "NORAD_CAT_ID": 29945, "ELEMENT_SET_NO": 999, "REV_AT_EPOCH": 96888, "BSTAR": 0.00012616213, "MEAN_MOTION_DOT": 1.63e-06, "MEAN_MOTION_DDOT": 0}, "tle": {"line1": "1 29945U 99025JT  25340.33348257  .00000163  00000+0  12616-3 0  9991", "line2": "2 29945  98.7926   4.1677 0031256  20.4145 350.8511 14.05570096968889"}}, "geometry": {"type": "Point", "coordinates": [-166.48893420163768, 45.00612702804263]}}, {"type": "Feature", "properties": {"norad_id": 29946, "name": "FENGYUN 1C DEB", "group": "fengyun-1c-debris", "lat": 77.42710228851548, "lon": -162.9539174811833, "alt_km": 866.5337399579521, "timestamp": "2025-12-06T18:50:10.441093+00:00", "meta": {"OBJECT_NAME": "FENGYUN 1C DEB", "OBJECT_ID": "1999-025JU", "EPOCH": "2025-12-05T23:56:05.786016", "MEAN_MOTION": 14.08244145, "ECCENTRICITY": 0.00809845, "INCLINATION": 98.7795, "RA_OF_ASC_NODE": 332.4191, "ARG_OF_PERICENTER": 2.494, "MEAN_ANOMALY": 65.1749, "EPHEMERIS_TYPE": 0, "CLASSIFICATION_TYPE": "U", "NORAD_CAT_ID": 29946, "ELEMENT_SET_NO": 999, "REV_AT_EPOCH": 96952, "BSTAR": 0.00053284965, "MEAN_MOTION_DOT": 8.95e-06, "MEAN_MOTION_DDOT": 0}, "tle": {"line1": "1 29946U 99025JU  25339.99728919  .00000895  00000+0  53285-3 0  9998", "line2": "2 29946  98.7795 332.4191 0080984   2.4940  65.1749 14.08244145969524"}}, "geometry": {"type": "Point", "coordinates": [-162.9539174811833, 77.42710228851548]}}, {"type": "Feature", "properties": {"norad_id": 29947, "name": "FENGYUN 1C DEB", "group": "fengyun-1c-debris", "lat": -9.403067714947028, "lon": -169.9648658434139, "alt_km": 869.0980026041234, "timestamp": "2025-12-06T18:50:10.441106+00:00", "meta": {"OBJECT_NAME": "FENGYUN 1C DEB", "OBJECT_ID": "1999-025JV", "EPOCH": "2025-12-06T01:07:23.280672", "MEAN_MOTION": 14.03058731, "ECCENTRICITY": 0.00407926, "INCLINATION": 98.8371, "RA_OF_ASC_NODE": 10.7949, "ARG_OF_PERICENTER": 139.0543, "MEAN_ANOMALY": 284.1564, "EPHEMERIS_TYPE": 0, "CLASSIFICATION_TYPE": "U", "NORAD_CAT_ID": 29947, "ELEMENT_SET_NO": 999, "REV_AT_EPOCH": 96656, "BSTAR": 0.00038474883, "MEAN_MOTION_DOT": 5.6e-06, "MEAN_MOTION_DDOT": 0}, "tle": {"line1": "1 29947U 99025JV  25340.04679723  .00000560  00000+0  38475-3 0  9998", "line2": "2 29947  98.8371  10.7949 0040792 139.0543 284.1564 14.03058731966560"}}, "geometry": {"type": "Point", "coordinates": [-169.9648658434139, -9.403067714947028]}}, {"type": "Feature", "properties": {"norad_id": 29948, "name": "FENGYUN 1C DEB", "group": "fengyun-1c-debris", "lat": -10.543052258008872, "lon": -31.23035987262055, "alt_km": 885.5219842834813, "timestamp": "2025-12-06T18:50:10.441117+00:00", "meta": {"OBJECT_NAME": "FENGYUN 1C DEB", "OBJECT_ID": "1999-025JW", "EPOCH": "2025-12-06T05:18:17.417088", "MEAN_MOTION": 14.06187617, "ECCENTRICITY": 0.00835796, "INCLINATION": 98.8237, "RA_OF_ASC_NODE": 326.5636, "ARG_OF_PERICENTER": 252.0948, "MEAN_ANOMALY": 123.834, "EPHEMERIS_TYPE": 0, "CLASSIFICATION_TYPE": "U", "NORAD_CAT_ID": 29948, "ELEMENT_SET_NO": 999, "REV_AT_EPOCH": 96885, "BSTAR": 0.00011456455, "MEAN_MOTION_DOT": 1.51e-06, "MEAN_MOTION_DDOT": 0}, "tle": {"line1": "1 29948U 99025JW  25340.22103492  .00000151  00000+0  11456-3 0  9990", "line2": "2 29948  98.8237 326.5636 0083579 252.0948 123.8340 14.06187617968852"}}, "geometry": {"type": "Point", "coordinates": [-31.23035987262055, -10.543052258008872]}}, {"type": "Feature", "properties": {"norad_id": 29949, "name": "FENGYUN 1C DEB", "group": "fengyun-1c-debris", "lat": -70.17433086646847, "lon": 21.98405300445852, "alt_km": 863.5623618792879, "timestamp": "2025-12-06T18:50:10.441127+00:00", "meta": {"OBJECT_NAME": "FENGYUN 1C DEB", "OBJECT_ID": "1999-025JX", "EPOCH": "2025-12-06T07:17:14.872704", "MEAN_MOTION": 14.0682502, "ECCENTRICITY": 0.00234764, "INCLINATION": 98.7626, "RA_OF_ASC_NODE": 356.1894, "ARG_OF_PERICENTER": 324.2968, "MEAN_ANOMALY": 48.0382, "EPHEMERIS_TYPE": 0, "CLASSIFICATION_TYPE": "U", "NORAD_CAT_ID": 29949, "ELEMENT_SET_NO": 999, "REV_AT_EPOCH": 97017, "BSTAR": -6.068181e-06, "MEAN_MOTION_DOT": -5.3e-07, "MEAN_MOTION_DDOT": 0}, "tle": {"line1": "1 29949U 99025JX  25340.30364436 -.00000053  00000+0 -60682-5 0  9997", "line2": "2 29949  98.7626 356.1894 0023476 324.2968  48.0382 14.06825020970172"}}, "geometry": {"type": "Point", "coordinates": [21.98405300445852, -70.17433086646847]}}, {"type": "Feature", "properties": {"norad_id": 29950, "name": "FENGYUN 1C DEB", "group": "fengyun-1c-debris", "lat": 47.91752075524261, "lon": 2.2181867534982915, "alt_km": 873.9147903077837, "timestamp": "2025-12-06T18:50:10.441138+00:00", "meta": {"OBJECT_NAME": "FENGYUN 1C DEB", "OBJECT_ID": "1999-025JY", "EPOCH": "2025-12-06T01:42:20.259648", "MEAN_MOTION": 14.1032962, "ECCENTRICITY": 0.00321825, "INCLINATION": 98.7417, "RA_OF_ASC_NODE": 11.3348, "ARG_OF_PERICENTER": 261.5123, "MEAN_ANOMALY": 125.0906, "EPHEMERIS_TYPE": 0, "CLASSIFICATION_TYPE": "U", "NORAD_CAT_ID": 29950, "ELEMENT_SET_NO": 999, "REV_AT_EPOCH": 97197, "BSTAR": 0.00018767696, "MEAN_MOTION_DOT": 2.92e-06, "MEAN_MOTION_DDOT": 0}, "tle": {"line1": "1 29950U 99025JY  25340.07106782  .00000292  00000+0  18768-3 0  9990", "line2": "2 29950  98.7417  11.3348 0032182 261.5123 125.0906 14.10329620971973"}}, "geometry": {"type": "Point", "coordinates": [2.2181867534982915, 47.91752075524261]}}]}